GLOBALSTAR M069         
1 31573U 07020C   26170.46777594 -.00000077  00000+0  14020-3 0  9997
2 31573  52.0022 245.6722 0002293 152.8326 220.6147 12.23471381879089
GLOBALSTAR M072         
1 31574U 07020D   26170.81255375 -.00000099  00000+0 -20732-3 0  9997
2 31574  51.9935  93.2558 0001443 338.7929  53.6033 11.91658309875293
GLOBALSTAR M066         
1 32265U 07048C   26170.45680015 -.00000141  00000+0 -38996-3 0  9997
2 32265  51.9605  51.3970 0005531  48.7281 122.8898 12.30387380860507
GLOBALSTAR M079         
1 37188U 10054A   26170.53601771 -.00000092  00000+0  66655-4 0  9996
2 37188  52.0036 101.5190 0000771  29.6669 141.7190 12.62266108722845
GLOBALSTAR M074         
1 37189U 10054B   26170.84905813 -.00000097  00000+0  35067-4 0  9993
2 37189  52.0013  99.8305 0000603  55.5618 339.2778 12.62268356723499
GLOBALSTAR M076         
1 37190U 10054C   26170.58867147 -.00000093  00000+0  60518-4 0  9998
2 37190  52.0025 100.8265 0000790  47.6164 123.4248 12.62261873723174
GLOBALSTAR M077         
1 37191U 10054D   26170.25128778 -.00000090  00000+0 -22429-3 0  9999
2 37191  51.9918 174.0567 0002696 176.2151 196.7679 11.67547823721382
GLOBALSTAR M075         
1 37192U 10054E   26170.27147838 -.00000115  00000+0 -62701-4 0  9996
2 37192  51.9925 143.8458 0000218  24.0283  84.8930 12.62267333722208
GLOBALSTAR M073         
1 37193U 10054F   26170.73069273 -.00000076  00000+0  15732-3 0  9990
2 37193  52.0073  56.5502 0000964  54.4001 340.7540 12.62266530724254
GLOBALSTAR M083         
1 37739U 11033A   26170.75375654 -.00000087  00000+0  91221-4 0  9999
2 37739  51.9874   4.7049 0000949  70.7825  10.6737 12.62263260693271
GLOBALSTAR M088         
1 37740U 11033B   26170.55440312 -.00000081  00000+0  12586-3 0  9993
2 37740  52.0215 271.7472 0000658 130.8274 242.6700 12.62268824688792
GLOBALSTAR M091         
1 37741U 11033C   26170.48848262 -.00000092  00000+0  66745-4 0  9991
2 37741  51.9988 234.9101 0000246 160.0267 214.7195 12.62264038689576
GLOBALSTAR M085         
1 37742U 11033D   26170.31659387 -.00000117  00000+0 -71448-4 0  9997
2 37742  52.0096 186.7260 0000157 313.4254  59.9349 12.62264139690068
GLOBALSTAR M081         
1 37743U 11033E   26170.36235270 -.00000105  00000+0 -91245-5 0  9999
2 37743  51.9930 189.0209 0000103  71.1733  29.8787 12.62265138690213
GLOBALSTAR M089         
1 37744U 11033F   26170.33282792 -.00000104  00000+0 -36478-5 0  9994
2 37744  51.9908 143.2679 0000376  81.3263  66.3869 12.62267271691055
GLOBALSTAR M084         
1 38040U 11080A   26170.72678255 -.00000100  00000+0  22556-4 0  9998
2 38040  52.0028   9.5509 0001097  89.6588 349.0525 12.62267585669084
GLOBALSTAR M080         
1 38041U 11080B   26170.32243721 -.00000092  00000+0  63562-4 0  9993
2 38041  52.0078  12.5007 0000399  71.7512  98.7113 12.62269478669152
GLOBALSTAR M082         
1 38042U 11080C   26170.17951316 -.00000082  00000+0  12427-3 0  9995
2 38042  52.0100 328.4373 0000516 101.3671  69.3051 12.62263766669846
GLOBALSTAR M092         
1 38043U 11080D   26170.47025189 -.00000090  00000+0  77512-4 0  9995
2 38043  52.0095  57.9487 0000737  66.3232 105.1943 12.62267036668334
GLOBALSTAR M090         
1 38044U 11080E   26170.58183976 -.00000099  00000+0  27994-4 0  9995
2 38044  52.0141 321.1688 0000773  95.2885 343.5666 12.62269055670012
GLOBALSTAR M086         
1 38045U 11080F   26170.14871155 -.00000087  00000+0  91319-4 0  9990
2 38045  51.9916 322.4139 0001692  70.9137  99.8996 12.62286790669905
GLOBALSTAR M097         
1 39072U 13005A   26170.45925654 -.00000095  00000+0  47234-4 0  9994
2 39072  52.0037 236.4213 0000244 127.8072 232.2817 12.62247295617197
GLOBALSTAR M093         
1 39073U 13005B   26170.43243875 -.00000096  00000+0  42860-4 0  9992
2 39073  52.0092 229.8497 0000177  80.7829 279.3058 12.62266025617147
GLOBALSTAR M094         
1 39074U 13005C   26170.19477635 -.00000120  00000+0 -91303-4 0  9994
2 39074  51.9932 144.6858 0000460   8.3704 351.7170 12.62268533618728
GLOBALSTAR M096         
1 39075U 13005D   26170.36662830 -.00000110  00000+0 -37302-4 0  9995
2 39075  52.0044 192.9671 0000078 324.6662  35.4200 12.62265687617665
GLOBALSTAR M078         
1 39076U 13005E   26170.57721099 -.00000124  00000+0 -11299-3 0  9993
2 39076  51.9882 276.3326 0000494 238.1326 121.9493 12.62257803616313
GLOBALSTAR M095         
1 39077U 13005F   26170.60395115 -.00000084  00000+0  11016-3 0  9995
2 39077  52.0089 273.8589 0000186 131.7452 228.3431 12.62263485616175
GLOBALSTAR M087         
1 52888U 22064A   26170.37962727 -.00000087  00000+0  95170-4 0  9995
2 52888  52.0009  55.7778 0000793  43.2715 316.8214 12.62269143191416
